#dP2022 10 22  0  0  0.00000000      96 __u+U ITR00 EXT  IAC
## 2232 518400.00000000   900.00000000 59874 0.0000000000000
+  117   C06C07C08C09C10C11C12C13C14C16C19C20C21C22C23C24C25
+        C26C27C28C29C30C32C33C34C35C36C37C38C39C40C41C42C43
+        C44C45C46E01E02E03E04E05E07E08E09E10E11E12E13E14E15
+        E18E19E24E25E26E27E30E31E33E34E36G01G02G03G04G05G06
+        G07G08G09G10G11G12G13G14G15G16G17G18G19G20G21G22G23
+        G24G25G26G27G28G29G30G31G32J02J03J04R01R02R03R04R05
+        R07R08R09R11R12R13R14R15R17R18R19R20R21R22R24  0  0
++         8 10 10  9  9  9  8  8  9  9  7  8  7  9  8  7  8
++         8  8  9  7  8  9 10  8  9  8  7  9  9 10  9  9 10
++         8  8  9  8  9  8  9  9  9  9  8  8 10  8  8  7  8
++         8  9  8  8  8  8  9  8  7  8  9  8  8  8  8  7  8
++         8  8  9  6  9  8  8  7  9  9  8 10  9  8  9  9  7
++         6  7  8  8  7  8  8 10  8  9 10 10  8  8  9  7  8
++         9  8  9  9  8 10  8  7  7  9  8 11  7 10  7  0  0
%c M  cc GPS ccc cccc cccc cccc cccc ccccc ccccc ccccc ccccc
%c cc cc ccc ccc cccc cccc cccc cccc ccccc ccccc ccccc ccccc
%f  0.0000000  0.000000000  0.00000000000  0.000000000000000
%f  0.0000000  0.000000000  0.00000000000  0.000000000000000
%i    0    0    0    0      0      0      0      0         0
%i    0    0    0    0      0      0      0      0         0
/* IAC                                ULTRA-RAPID PREDICTION
/* S/V CLOCKS ARE ALIGNED TO GNSS TIME                      
/* G:C1WC2W R:C1PC2P E:C1XC5X C:C2IC6I J:C1CC2S             
/* PCV:IGS14_2218 OL/AL:FES2004  NONE     YN ORB:CoN CLK:CoN
*  2022 10 22 15 30  0.00000000
PC06  -7720.440659  40305.939952  -9138.100548    887.788157
PC07  -6563.959075  26649.572118  32074.247107    320.333787
PC08 -20608.226539  27943.669202 -24064.578213    499.256623
PC09  -1953.226163  41825.858252   1479.276560   -827.598562
PC10   2249.796234  29235.963919  30730.214674     79.945772
PC11  -5345.936204 -26886.308244   5187.109473   -336.488440
PC12   6001.665866 -24368.757270 -12135.867186   -472.033573
PC13 -11416.058729  28310.639647 -29095.750032    113.638445
PC14 -12515.765246 -18301.597997  16923.977200    590.650955
PC16 -10176.686715  38416.839162 -13489.582809    126.360773
PC19  20793.747395  16156.537395  -9243.707248   -928.374332
PC20   4283.892002  17732.751207 -21120.910282    857.982333
PC21  16076.677060  -8674.889308  21106.187959   -658.385297
PC22  26063.793735   5244.269659   8504.828954   -836.278693
PC23 -23281.661095   3475.538907 -14988.339007   -681.172778
PC24   8610.514795 -20806.476022 -16471.327559   -735.828198
PC25 -11807.842323 -11379.550627 -22587.540481     13.454368
PC26  21176.799938 -18010.925517  -2192.906949    -25.123333
PC27 -11108.348264  17908.758014  18271.963029     39.831248
PC28 -16013.146773  -1498.622364  22810.509762     27.256294
PC29  12297.605136  21001.184063 -13662.389909     30.277639
PC30    756.062453  27599.802258   3990.227978      0.652735
PC32 -16085.415819   8746.505799 -21052.434636   -748.663063
PC33 -20789.237306 -16085.048956   9351.992396   -929.552614
PC34  -1479.302421 -27726.908159  -2884.538990     22.428994
PC35  16214.216193   2645.902544 -22560.588619     53.600789
PC36  10950.978918  12127.214003  22646.392435   -811.970438
PC37 -22211.971466  16893.226931    940.861262   -591.175909
PC38 -25792.240269  28970.130450 -16741.034256     32.868567
PC39 -11040.455931  36171.936187 -18429.541346     -0.685774
PC40 -10841.180912  20268.230704  35353.202321     -6.544668
PC41 -26155.972870  -5563.856105  -7941.488004   -198.616880
PC42  -2924.105363 -17513.000722  21559.160012   -521.670139
PC43 -11950.704391 -21614.232368  13000.333380     20.954123
PC44  10677.638758 -18151.385024 -18332.040850     89.721922
PC45  23339.414950  -3822.461702  14794.473281    -12.972486
PC46  -6997.941432  20479.640570  17643.303750     -7.980907
PE01   2291.822575 -16815.366098 -24243.494129   -551.380032
PE02  -2101.942525  16818.283603  24272.751528    332.308624
PE03   6401.096886  25519.813517 -13582.216196   -612.346148
PE04 -19319.431199 -22023.967093  -4237.772876  -1142.187759
PE05 -10576.572269  14069.655297 -23803.095435   -132.041922
PE07  21128.200983   5368.001664  20024.977249   -715.335629
PE08  19368.374139  21977.577615   4274.246972   -619.673499
PE09 -21086.492303  -5544.196526 -20019.954441   -702.301462
PE10 -14879.661678  -5959.074421  24879.620273   -485.477306
PE11 -18517.329034   5739.377530  22359.956206   1672.990562
PE12  -9285.224740 -15888.645869  23185.023560   -236.105845
PE13  18269.546438  -4862.103559 -22770.353646    430.672348
PE14  18493.817493  24545.380694  -6294.511080     35.032275
PE15   9082.051626  16072.583442 -23132.689758    712.391839
PE18  -9651.674581 -23028.342318  -1828.045586   -831.595968
PE19  -4166.101083 -24773.052662  15657.931797  -4197.870283
PE24 -29465.927623    594.984726  -2908.858896   -905.404749
PE25 -21508.137072  12822.770375  15802.539029   -590.829088
PE26  16423.964148 -23211.788709  -8195.317181  -1757.005795
PE27  29497.257772  -1373.620540   1962.226874   -421.469109
PE30  19557.690677  11402.530209  19058.631574   -937.063802
PE31 -20311.669766 -10870.103987 -18576.924513   -506.350808
PE33   5395.565264 -27384.509541   9856.467328   -454.944463
PE34  -5225.355626  27371.925190 -10013.247831    -10.762833
PE36 -16655.610289  22732.878061   9063.850888   -449.666323
PG01 -13968.653595  22316.665686   1227.028210    263.469801
PG02  12595.488478 -23313.874193  -2342.723550   -641.271070
PG03 -15948.379711  12051.278982 -17560.517230   -367.005595
PG04  -5632.126467  17523.588247 -19110.297744    -99.383437
PG05  24644.673700  -6539.636281   7478.109497   -101.377266
PG06  12081.542486   8209.232835 -22115.455890    498.395056
PG07  -2822.981187  23166.167460  12624.770710    296.065089
PG08 -12895.220436   8010.468658  21750.948339    -90.098106
PG09   4934.566733  23446.958079 -11496.029545   -279.640845
PG10 -16694.633739 -11588.308719  17419.556177     -8.610131
PG11  17974.947999  -3397.226914 -19238.913795    -29.003886
PG12  17003.342278 -10985.895445 -17407.426612   -295.273851
PG13  16091.840382   1147.358428  20961.687545    410.796161
PG14  14318.771108  13264.750861  18071.278101    -92.307806
PG15  12135.240311  -9879.920393  21014.612104    -18.768333
PG16 -26685.274016   -537.495900   2276.156668   -526.513978
PG17  12700.035029  23230.077718  -1143.760203    671.145000
PG18   2484.016833 -22556.390429  13682.990029      5.573314
PG19  16737.950395  17062.883707 -12089.538312    227.234221
PG20  25728.905246    -23.043550  -6076.235084    476.288730
PG21 -16595.608896  17232.072647  11285.141307    157.560041
PG22 -17436.764371 -14730.631821 -13307.044623    350.428537
PG23  -5330.423205 -14567.209580  21566.023794     -1.107262
PG24  14435.837017 -21158.554468   5802.331643     89.868388
PG25   4740.506408 -15275.014700 -21459.198818    385.007973
PG26 -25012.352140  -4425.559765  -8399.843876    233.364341
PG27 -17918.362376  -4772.205760  18947.475193    193.488082
PG28  21348.283072  10257.335025  12261.737462    325.557584
PG29  -1946.337995 -23239.100904 -12676.585917   -561.622236
PG30   6710.000928  16865.337848  19399.271871   -537.162914
PG31 -13684.386195  -7121.443446 -21777.790209   -197.666056
PG32 -15904.122594 -21001.985137  -3984.574820   -271.527734
PJ02 -30038.706148  24704.739242  21367.820213     -7.864373
PJ03 -28367.600392  26542.125698  21456.300516     -3.300361
PJ04 -28450.221157  19894.333409 -18744.546468    112.047741
PR01 -21699.941090  -8053.773512 -10719.858660     16.638793
PR02 -10903.430222   5237.608184 -22431.837509    -23.074585
PR03   5533.674121  15158.885967 -19695.377472     65.918576
PR04  18523.336692  16420.924707  -6101.101237    162.117547
PR05  21328.806983   8793.823584  10853.151049    101.648792
PR07  -6284.862725 -15480.761520  19326.570845     42.984300
PR08 -18631.310282 -16382.316645   6055.363492    -67.756407
PR09  20649.708510 -13763.993928  -6047.067940     83.434313
PR11  -9422.375763  -7255.326733 -22551.966135     23.829320
PR12 -22296.496820   4674.025009 -11466.260522     22.234983
PR13 -21417.995799  13077.123294   4570.489695    -28.081393
PR14  -7228.191878  14253.630433  19889.721752     24.208127
PR15  10366.557208   6886.315870  22288.229720     93.062969
PR17  -2192.761346  25440.104773    -10.581687    571.361825
PR18   5229.763336  19382.898828 -15692.040629     48.323638
PR19   9694.342735   4965.746293 -23063.609011   -208.214072
PR20   9591.527041 -16572.919666 -16859.144249    -80.705054
PR21   1582.645646 -25384.718905   1686.292279   -343.633540
PR22  -5103.651320 -19094.405061  16158.098775     14.720898
PR24  -9300.395269  17338.583644  16268.493346    121.880655
EOF
